[{"OBJECT_NAME":"STARLINK-30246","OBJECT_ID":"2023-119P","EPOCH":"2026-03-09T22:00:01.999584","MEAN_MOTION":15.14425651,"ECCENTRICITY":8.476e-5,"INCLINATION":43.0007,"RA_OF_ASC_NODE":79.6807,"ARG_OF_PERICENTER":286.3854,"MEAN_ANOMALY":231.2681,"EPHEMERIS_TYPE":0,"CLASSIFICATION_TYPE":"U","NORAD_CAT_ID":57615,"ELEMENT_SET_NO":999,"REV_AT_EPOCH":557,"BSTAR":0.063371343,"MEAN_MOTION_DOT":0.01283812,"MEAN_MOTION_DDOT":0},{"OBJECT_NAME":"COSMOS 397 DEB","OBJECT_ID":"1971-015AJ","EPOCH":"2026-03-09T18:29:11.550048","MEAN_MOTION":14.57731986,"ECCENTRICITY":0.02840491,"INCLINATION":65.3533,"RA_OF_ASC_NODE":250.7757,"ARG_OF_PERICENTER":34.5343,"MEAN_ANOMALY":327.3849,"EPHEMERIS_TYPE":0,"CLASSIFICATION_TYPE":"U","NORAD_CAT_ID":5155,"ELEMENT_SET_NO":999,"REV_AT_EPOCH":73323,"BSTAR":0.001223321,"MEAN_MOTION_DOT":9.675e-5,"MEAN_MOTION_DDOT":0}]
